[{"OBJECT_NAME":"STARLINK-31305","OBJECT_ID":"2024-049B","EPOCH":"2026-03-09T06:23:06.919584","MEAN_MOTION":15.27570268,"ECCENTRICITY":0.00012979,"INCLINATION":43.0033,"RA_OF_ASC_NODE":145.7122,"ARG_OF_PERICENTER":267.3555,"MEAN_ANOMALY":92.7148,"EPHEMERIS_TYPE":0,"CLASSIFICATION_TYPE":"U","NORAD_CAT_ID":59232,"ELEMENT_SET_NO":999,"REV_AT_EPOCH":11232,"BSTAR":-0.00011838441,"MEAN_MOTION_DOT":-3.517e-5,"MEAN_MOTION_DDOT":0},{"OBJECT_NAME":"OTTER","OBJECT_ID":"2025-009Q","EPOCH":"2026-03-09T17:21:07.902432","MEAN_MOTION":15.27809545,"ECCENTRICITY":0.00035728,"INCLINATION":97.4065,"RA_OF_ASC_NODE":151.3812,"ARG_OF_PERICENTER":310.771,"MEAN_ANOMALY":49.3219,"EPHEMERIS_TYPE":0,"CLASSIFICATION_TYPE":"U","NORAD_CAT_ID":62623,"ELEMENT_SET_NO":999,"REV_AT_EPOCH":6372,"BSTAR":0.00045151206,"MEAN_MOTION_DOT":0.00012198,"MEAN_MOTION_DDOT":0}]
