STARLINK-31305          
1 59232U 24049B   26068.26605231 -.00003517  00000+0 -11838-3 0  9998
2 59232  43.0033 145.7122 0001297 267.3555  92.7148 15.27570268112323
OTTER                   
1 62623U 25009Q   26068.72300813  .00012198  00000+0  45151-3 0  9990
2 62623  97.4065 151.3812 0003573 310.7710  49.3219 15.27809545 63722
